[{"OBJECT_NAME":"STARLINK-31578","OBJECT_ID":"2024-057B","EPOCH":"2026-03-05T10:27:57.459744","MEAN_MOTION":15.27575689,"ECCENTRICITY":0.0001582,"INCLINATION":43,"RA_OF_ASC_NODE":210.6518,"ARG_OF_PERICENTER":282.0313,"MEAN_ANOMALY":78.0361,"EPHEMERIS_TYPE":0,"CLASSIFICATION_TYPE":"U","NORAD_CAT_ID":59321,"ELEMENT_SET_NO":999,"REV_AT_EPOCH":10919,"BSTAR":-2.3348081e-5,"MEAN_MOTION_DOT":-9.05e-6,"MEAN_MOTION_DDOT":0},{"OBJECT_NAME":"STARLINK-31530","OBJECT_ID":"2024-057C","EPOCH":"2026-03-05T14:00:01.999872","MEAN_MOTION":15.38454446,"ECCENTRICITY":0.00118966,"INCLINATION":42.9976,"RA_OF_ASC_NODE":208.6813,"ARG_OF_PERICENTER":336.6245,"MEAN_ANOMALY":231.0489,"EPHEMERIS_TYPE":0,"CLASSIFICATION_TYPE":"U","NORAD_CAT_ID":59322,"ELEMENT_SET_NO":999,"REV_AT_EPOCH":586,"BSTAR":0.0036877513,"MEAN_MOTION_DOT":0.00145839,"MEAN_MOTION_DDOT":0},{"OBJECT_NAME":"STARLINK-31565","OBJECT_ID":"2024-057D","EPOCH":"2026-03-05T11:01:56.198208","MEAN_MOTION":15.27572082,"ECCENTRICITY":0.00033088,"INCLINATION":43.0071,"RA_OF_ASC_NODE":218.623,"ARG_OF_PERICENTER":286.5023,"MEAN_ANOMALY":73.5465,"EPHEMERIS_TYPE":0,"CLASSIFICATION_TYPE":"U","NORAD_CAT_ID":59323,"ELEMENT_SET_NO":999,"REV_AT_EPOCH":10910,"BSTAR":-1.3527913e-5,"MEAN_MOTION_DOT":-6.35e-6,"MEAN_MOTION_DDOT":0},{"OBJECT_NAME":"STARLINK-31570","OBJECT_ID":"2024-057E","EPOCH":"2026-03-05T10:24:29.184768","MEAN_MOTION":15.27575445,"ECCENTRICITY":0.00014448,"INCLINATION":43.0017,"RA_OF_ASC_NODE":211.4968,"ARG_OF_PERICENTER":273.6031,"MEAN_ANOMALY":86.4655,"EPHEMERIS_TYPE":0,"CLASSIFICATION_TYPE":"U","NORAD_CAT_ID":59324,"ELEMENT_SET_NO":999,"REV_AT_EPOCH":10918,"BSTAR":2.884672e-5,"MEAN_MOTION_DOT":5.32e-6,"MEAN_MOTION_DDOT":0},{"OBJECT_NAME":"STARLINK-31611","OBJECT_ID":"2024-057F","EPOCH":"2026-03-05T10:26:19.128768","MEAN_MOTION":15.27571207,"ECCENTRICITY":0.00011004,"INCLINATION":42.9981,"RA_OF_ASC_NODE":211.5086,"ARG_OF_PERICENTER":261.218,"MEAN_ANOMALY":98.8547,"EPHEMERIS_TYPE":0,"CLASSIFICATION_TYPE":"U","NORAD_CAT_ID":59325,"ELEMENT_SET_NO":999,"REV_AT_EPOCH":10918,"BSTAR":-1.9362196e-5,"MEAN_MOTION_DOT":-7.95e-6,"MEAN_MOTION_DDOT":0},{"OBJECT_NAME":"STARLINK-31632","OBJECT_ID":"2024-057G","EPOCH":"2026-03-05T11:16:02.741952","MEAN_MOTION":15.27566464,"ECCENTRICITY":7.991e-5,"INCLINATION":42.9994,"RA_OF_ASC_NODE":222.1519,"ARG_OF_PERICENTER":260.4976,"MEAN_ANOMALY":99.5786,"EPHEMERIS_TYPE":0,"CLASSIFICATION_TYPE":"U","NORAD_CAT_ID":59326,"ELEMENT_SET_NO":999,"REV_AT_EPOCH":10906,"BSTAR":-5.428176e-6,"MEAN_MOTION_DOT":-4.11e-6,"MEAN_MOTION_DDOT":0},{"OBJECT_NAME":"STARLINK-31599","OBJECT_ID":"2024-057H","EPOCH":"2026-03-05T10:52:00.852096","MEAN_MOTION":15.27573327,"ECCENTRICITY":9.192e-5,"INCLINATION":42.9999,"RA_OF_ASC_NODE":210.7851,"ARG_OF_PERICENTER":257.8861,"MEAN_ANOMALY":102.1887,"EPHEMERIS_TYPE":0,"CLASSIFICATION_TYPE":"U","NORAD_CAT_ID":59327,"ELEMENT_SET_NO":999,"REV_AT_EPOCH":10919,"BSTAR":-3.7004796e-5,"MEAN_MOTION_DOT":-1.28e-5,"MEAN_MOTION_DDOT":0},{"OBJECT_NAME":"STARLINK-31614","OBJECT_ID":"2024-057J","EPOCH":"2026-03-05T09:53:00.516192","MEAN_MOTION":15.27577281,"ECCENTRICITY":0.00013173,"INCLINATION":43.0006,"RA_OF_ASC_NODE":211.3378,"ARG_OF_PERICENTER":261.5053,"MEAN_ANOMALY":98.5649,"EPHEMERIS_TYPE":0,"CLASSIFICATION_TYPE":"U","NORAD_CAT_ID":59328,"ELEMENT_SET_NO":999,"REV_AT_EPOCH":10918,"BSTAR":3.128957e-6,"MEAN_MOTION_DOT":-1.76e-6,"MEAN_MOTION_DDOT":0},{"OBJECT_NAME":"STARLINK-31493","OBJECT_ID":"2024-057K","EPOCH":"2026-03-05T11:03:06.643584","MEAN_MOTION":15.27581927,"ECCENTRICITY":0.00029808,"INCLINATION":43.0094,"RA_OF_ASC_NODE":210.8544,"ARG_OF_PERICENTER":301.0889,"MEAN_ANOMALY":58.967,"EPHEMERIS_TYPE":0,"CLASSIFICATION_TYPE":"U","NORAD_CAT_ID":59329,"ELEMENT_SET_NO":999,"REV_AT_EPOCH":10919,"BSTAR":2.5343892e-5,"MEAN_MOTION_DOT":4.35e-6,"MEAN_MOTION_DDOT":0},{"OBJECT_NAME":"STARLINK-31634","OBJECT_ID":"2024-057L","EPOCH":"2026-03-05T10:05:57.868224","MEAN_MOTION":15.27574947,"ECCENTRICITY":0.00017041,"INCLINATION":43.0041,"RA_OF_ASC_NODE":211.3991,"ARG_OF_PERICENTER":252.0797,"MEAN_ANOMALY":107.9869,"EPHEMERIS_TYPE":0,"CLASSIFICATION_TYPE":"U","NORAD_CAT_ID":59330,"ELEMENT_SET_NO":999,"REV_AT_EPOCH":10918,"BSTAR":-1.8014166e-5,"MEAN_MOTION_DOT":-7.58e-6,"MEAN_MOTION_DDOT":0},{"OBJECT_NAME":"STARLINK-31633","OBJECT_ID":"2024-057M","EPOCH":"2026-03-05T10:02:15.333792","MEAN_MOTION":15.27579614,"ECCENTRICITY":0.0001497,"INCLINATION":43.0003,"RA_OF_ASC_NODE":211.3793,"ARG_OF_PERICENTER":287.8187,"MEAN_ANOMALY":72.2502,"EPHEMERIS_TYPE":0,"CLASSIFICATION_TYPE":"U","NORAD_CAT_ID":59331,"ELEMENT_SET_NO":999,"REV_AT_EPOCH":10918,"BSTAR":2.3337666e-5,"MEAN_MOTION_DOT":3.8e-6,"MEAN_MOTION_DDOT":0},{"OBJECT_NAME":"STARLINK-31594","OBJECT_ID":"2024-057N","EPOCH":"2026-03-05T11:21:35.438112","MEAN_MOTION":15.27570444,"ECCENTRICITY":0.00010493,"INCLINATION":43.0001,"RA_OF_ASC_NODE":222.1789,"ARG_OF_PERICENTER":264.5219,"MEAN_ANOMALY":95.5513,"EPHEMERIS_TYPE":0,"CLASSIFICATION_TYPE":"U","NORAD_CAT_ID":59332,"ELEMENT_SET_NO":999,"REV_AT_EPOCH":10906,"BSTAR":-4.4331146e-5,"MEAN_MOTION_DOT":-1.481e-5,"MEAN_MOTION_DDOT":0},{"OBJECT_NAME":"STARLINK-31572","OBJECT_ID":"2024-057P","EPOCH":"2026-03-05T11:25:17.404896","MEAN_MOTION":15.2757853,"ECCENTRICITY":0.00016741,"INCLINATION":43.002,"RA_OF_ASC_NODE":222.1997,"ARG_OF_PERICENTER":289.1354,"MEAN_ANOMALY":70.9316,"EPHEMERIS_TYPE":0,"CLASSIFICATION_TYPE":"U","NORAD_CAT_ID":59333,"ELEMENT_SET_NO":999,"REV_AT_EPOCH":10906,"BSTAR":5.527477e-6,"MEAN_MOTION_DOT":-1.1e-6,"MEAN_MOTION_DDOT":0},{"OBJECT_NAME":"STARLINK-31573","OBJECT_ID":"2024-057Q","EPOCH":"2026-03-05T10:29:49.386624","MEAN_MOTION":15.27577587,"ECCENTRICITY":0.00023278,"INCLINATION":43.0012,"RA_OF_ASC_NODE":210.6595,"ARG_OF_PERICENTER":293.8224,"MEAN_ANOMALY":66.2384,"EPHEMERIS_TYPE":0,"CLASSIFICATION_TYPE":"U","NORAD_CAT_ID":59334,"ELEMENT_SET_NO":999,"REV_AT_EPOCH":10919,"BSTAR":4.7565132e-5,"MEAN_MOTION_DOT":1.047e-5,"MEAN_MOTION_DDOT":0},{"OBJECT_NAME":"STARLINK-31588","OBJECT_ID":"2024-057R","EPOCH":"2026-03-05T10:39:03.816288","MEAN_MOTION":15.27569263,"ECCENTRICITY":0.0001308,"INCLINATION":43.0023,"RA_OF_ASC_NODE":210.7127,"ARG_OF_PERICENTER":269.3989,"MEAN_ANOMALY":90.6713,"EPHEMERIS_TYPE":0,"CLASSIFICATION_TYPE":"U","NORAD_CAT_ID":59335,"ELEMENT_SET_NO":999,"REV_AT_EPOCH":10919,"BSTAR":-4.9204391e-5,"MEAN_MOTION_DOT":-1.615e-5,"MEAN_MOTION_DDOT":0},{"OBJECT_NAME":"STARLINK-31596","OBJECT_ID":"2024-057S","EPOCH":"2026-03-05T10:44:37.001472","MEAN_MOTION":15.27574545,"ECCENTRICITY":0.00013906,"INCLINATION":43.0047,"RA_OF_ASC_NODE":210.7448,"ARG_OF_PERICENTER":271.2535,"MEAN_ANOMALY":88.8157,"EPHEMERIS_TYPE":0,"CLASSIFICATION_TYPE":"U","NORAD_CAT_ID":59336,"ELEMENT_SET_NO":999,"REV_AT_EPOCH":10919,"BSTAR":-5.6161705e-5,"MEAN_MOTION_DOT":-1.807e-5,"MEAN_MOTION_DDOT":0}]
