STARLINK-31578          
1 59321U 24057B   26064.43608171 -.00000905  00000+0 -23348-4 0  9995
2 59321  43.0000 210.6518 0001582 282.0313  78.0361 15.27575689109197
STARLINK-31530          
1 59322U 24057C   26064.58335648  .00145839  00000+0  36878-2 0  9992
2 59322  42.9976 208.6813 0011896 336.6245 231.0489 15.38454446  5862
STARLINK-31565          
1 59323U 24057D   26064.45967822 -.00000635  00000+0 -13528-4 0  9999
2 59323  43.0071 218.6230 0003308 286.5023  73.5465 15.27572082109101
STARLINK-31570          
1 59324U 24057E   26064.43367112  .00000532  00000+0  28847-4 0  9998
2 59324  43.0017 211.4968 0001444 273.6031  86.4655 15.27575445109184
STARLINK-31611          
1 59325U 24057F   26064.43494362 -.00000795  00000+0 -19362-4 0  9992
2 59325  42.9981 211.5086 0001100 261.2180  98.8547 15.27571207109181
STARLINK-31632          
1 59326U 24057G   26064.46947618 -.00000411  00000+0 -54282-5 0  9999
2 59326  42.9994 222.1519 0000799 260.4976  99.5786 15.27566464109061
STARLINK-31599          
1 59327U 24057H   26064.45278764 -.00001280  00000+0 -37005-4 0  9996
2 59327  42.9999 210.7851 0000919 257.8861 102.1887 15.27573327109199
STARLINK-31614          
1 59328U 24057J   26064.41181153 -.00000176  00000+0  31290-5 0  9991
2 59328  43.0006 211.3378 0001317 261.5053  98.5649 15.27577281109186
STARLINK-31493          
1 59329U 24057K   26064.46049356  .00000435  00000+0  25344-4 0  9994
2 59329  43.0094 210.8544 0002980 301.0889  58.9670 15.27581927109194
STARLINK-31634          
1 59330U 24057L   26064.42080866 -.00000758  00000+0 -18014-4 0  9999
2 59330  43.0041 211.3991 0001704 252.0797 107.9869 15.27574947109184
STARLINK-31633          
1 59331U 24057M   26064.41823303  .00000380  00000+0  23338-4 0  9994
2 59331  43.0003 211.3793 0001497 287.8187  72.2502 15.27579614109185
STARLINK-31594          
1 59332U 24057N   26064.47332683 -.00001481  00000+0 -44331-4 0  9998
2 59332  43.0001 222.1789 0001049 264.5219  95.5513 15.27570444109069
STARLINK-31572          
1 59333U 24057P   26064.47589589 -.00000110  00000+0  55275-5 0  9995
2 59333  43.0020 222.1997 0001674 289.1354  70.9316 15.27578530109061
STARLINK-31573          
1 59334U 24057Q   26064.43737716  .00001047  00000+0  47565-4 0  9990
2 59334  43.0012 210.6595 0002327 293.8224  66.2384 15.27577587109191
STARLINK-31588          
1 59335U 24057R   26064.44379417 -.00001615  00000+0 -49204-4 0  9997
2 59335  43.0023 210.7127 0001308 269.3989  90.6713 15.27569263109199
STARLINK-31596          
1 59336U 24057S   26064.44765048 -.00001807  00000+0 -56162-4 0  9991
2 59336  43.0047 210.7448 0001390 271.2535  88.8157 15.27574545109192
